start=new Date('2021-12-31T00:00:00.000Z').valueOf();
sats=[{"SITE":"AFETR","TLE_LINE2":"2 46719  53.0548 248.9216 0002051  54.4241 305.6939 15.06382958 66840","OBJECT_TYPE":"PAYLOAD","OBJECT_NAME":"STARLINK-1822","OBJECT_ID":"2020-073BB","RA_OF_ASC_NODE":"248.9216","ELEMENT_SET_NO":"999","REF_FRAME":"TEME","CLASSIFICATION_TYPE":"U","INCLINATION":"53.0548","SEMIMAJOR_AXIS":"6925.401","EPHEMERIS_TYPE":"0","ECCENTRICITY":"0.00020510","MEAN_ELEMENT_THEORY":"SGP4","MEAN_ANOMALY":"305.6939","FILE":"3255240","LAUNCH_DATE":"2020-10-18","APOAPSIS":"548.686","BSTAR":"-0.00014211000000","PERIAPSIS":"545.845","MEAN_MOTION_DOT":"-0.00002397","REV_AT_EPOCH":"6684","RCS_SIZE":"LARGE","EPOCH":"2021-12-30T22:37:49.677312","NORAD_CAT_ID":"46719","ARG_OF_PERICENTER":"54.4241","GP_ID":"192794334","MEAN_MOTION_DDOT":"0.0000000000000","CENTER_NAME":"EARTH","COUNTRY_CODE":"US","PERIOD":"95.593","MEAN_MOTION":"15.06382958","DECAY_DATE":null,"TIME_SYSTEM":"UTC","TLE_LINE1":"1 46719U 20073BB  21364.94293608 -.00002397  00000-0 -14211-3 0  9991"},{"INCLINATION":"53.0535","SEMIMAJOR_AXIS":"6801.393","CLASSIFICATION_TYPE":"U","ECCENTRICITY":"0.00024030","MEAN_ELEMENT_THEORY":"SGP4","EPHEMERIS_TYPE":"0","SITE":"AFETR","TLE_LINE2":"2 46720  53.0535 221.1171 0002403 159.9614 200.1487 15.47768450 67227","OBJECT_TYPE":"PAYLOAD","REF_FRAME":"TEME","ELEMENT_SET_NO":"999","RA_OF_ASC_NODE":"221.1171","OBJECT_ID":"2020-073BC","OBJECT_NAME":"STARLINK-1823","ARG_OF_PERICENTER":"159.9614","GP_ID":"192795084","MEAN_MOTION_DDOT":"0.0000000000000","EPOCH":"2021-12-30T19:55:47.025696","NORAD_CAT_ID":"46720","TLE_LINE1":"1 46720U 20073BC  21364.83040539  .00041741  00000-0  79609-3 0  9990","TIME_SYSTEM":"UTC","DECAY_DATE":null,"COUNTRY_CODE":"US","CENTER_NAME":"EARTH","PERIOD":"93.037","MEAN_MOTION":"15.47768450","REV_AT_EPOCH":"6722","RCS_SIZE":"LARGE","BSTAR":"0.00079609000000","MEAN_MOTION_DOT":"0.00041741","PERIAPSIS":"421.623","LAUNCH_DATE":"2020-10-18","APOAPSIS":"424.892","MEAN_ANOMALY":"200.1487","FILE":"3255240"},{"SEMIMAJOR_AXIS":"6925.375","INCLINATION":"53.0555","CLASSIFICATION_TYPE":"U","MEAN_ELEMENT_THEORY":"SGP4","ECCENTRICITY":"0.00017060","EPHEMERIS_TYPE":"0","TLE_LINE2":"2 46722  53.0555 284.0203 0001706  58.5990 301.5165 15.06391365 66344","OBJECT_TYPE":"PAYLOAD","SITE":"AFETR","ELEMENT_SET_NO":"999","REF_FRAME":"TEME","RA_OF_ASC_NODE":"284.0203","OBJECT_ID":"2020-073BE","OBJECT_NAME":"STARLINK-1825","GP_ID":"192793832","MEAN_MOTION_DDOT":"0.0000000000000","ARG_OF_PERICENTER":"58.5990","NORAD_CAT_ID":"46722","EPOCH":"2021-12-30T22:03:58.650912","TIME_SYSTEM":"UTC","TLE_LINE1":"1 46722U 20073BE  21364.91942883  .00000220  00000-0  33662-4 0  9991","DECAY_DATE":null,"MEAN_MOTION":"15.06391365","CENTER_NAME":"EARTH","COUNTRY_CODE":"US","PERIOD":"95.593","RCS_SIZE":"LARGE","REV_AT_EPOCH":"6634","MEAN_MOTION_DOT":"0.00000220","PERIAPSIS":"546.059","BSTAR":"0.00003366200000","APOAPSIS":"548.421","LAUNCH_DATE":"2020-10-18","FILE":"3255240","MEAN_ANOMALY":"301.5165"},{"RCS_SIZE":"LARGE","REV_AT_EPOCH":"6691","MEAN_MOTION_DOT":"-0.00001540","PERIAPSIS":"545.894","BSTAR":"-0.00008449400000","APOAPSIS":"548.590","LAUNCH_DATE":"2020-10-18","FILE":"3255240","MEAN_ANOMALY":"299.5721","MEAN_MOTION_DDOT":"0.0000000000000","GP_ID":"192793583","ARG_OF_PERICENTER":"60.5462","NORAD_CAT_ID":"46723","EPOCH":"2021-12-30T22:41:08.028384","TIME_SYSTEM":"UTC","TLE_LINE1":"1 46723U 20073BF  21364.94523181 -.00001540  00000-0 -84494-4 0  9998","DECAY_DATE":null,"MEAN_MOTION":"15.06390699","COUNTRY_CODE":"US","PERIOD":"95.593","CENTER_NAME":"EARTH","TLE_LINE2":"2 46723  53.0548 243.9190 0001947  60.5462 299.5721 15.06390699 66916","OBJECT_TYPE":"PAYLOAD","SITE":"AFETR","ELEMENT_SET_NO":"999","REF_FRAME":"TEME","RA_OF_ASC_NODE":"243.9190","OBJECT_ID":"2020-073BF","OBJECT_NAME":"STARLINK-1826","SEMIMAJOR_AXIS":"6925.377","INCLINATION":"53.0548","CLASSIFICATION_TYPE":"U","MEAN_ELEMENT_THEORY":"SGP4","ECCENTRICITY":"0.00019470","EPHEMERIS_TYPE":"0"},{"EPHEMERIS_TYPE":"0","ECCENTRICITY":"0.00017510","MEAN_ELEMENT_THEORY":"SGP4","CLASSIFICATION_TYPE":"U","INCLINATION":"53.0552","SEMIMAJOR_AXIS":"6925.387","RA_OF_ASC_NODE":"283.8840","REF_FRAME":"TEME","ELEMENT_SET_NO":"999","OBJECT_NAME":"STARLINK-1828","OBJECT_ID":"2020-073BH","SITE":"AFETR","TLE_LINE2":"2 46725  53.0552 283.8840 0001751  54.6936 305.4217 15.06387577 66357","OBJECT_TYPE":"PAYLOAD","DECAY_DATE":null,"TLE_LINE1":"1 46725U 20073BH  21364.94891849 -.00000736  00000-0 -30533-4 0  9990","TIME_SYSTEM":"UTC","PERIOD":"95.593","COUNTRY_CODE":"US","CENTER_NAME":"EARTH","MEAN_MOTION":"15.06387577","EPOCH":"2021-12-30T22:46:26.557536","NORAD_CAT_ID":"46725","ARG_OF_PERICENTER":"54.6936","GP_ID":"192794834","MEAN_MOTION_DDOT":"0.0000000000000","BSTAR":"-0.00003053300000","MEAN_MOTION_DOT":"-0.00000736","PERIAPSIS":"546.039","REV_AT_EPOCH":"6635","RCS_SIZE":"LARGE","MEAN_ANOMALY":"305.4217","FILE":"3255240","LAUNCH_DATE":"2020-10-18","APOAPSIS":"548.464"},{"REF_FRAME":"TEME","ELEMENT_SET_NO":"999","RA_OF_ASC_NODE":"269.0828","OBJECT_ID":"2020-073BJ","OBJECT_NAME":"STARLINK-1829","SITE":"AFETR","OBJECT_TYPE":"PAYLOAD","TLE_LINE2":"2 46726  53.0560 269.0828 0006226 112.6547 247.5100 15.06391551 66550","ECCENTRICITY":"0.00062260","MEAN_ELEMENT_THEORY":"SGP4","EPHEMERIS_TYPE":"0","INCLINATION":"53.0560","SEMIMAJOR_AXIS":"6925.374","CLASSIFICATION_TYPE":"U","REV_AT_EPOCH":"6655","RCS_SIZE":"LARGE","BSTAR":"-0.00003453500000","MEAN_MOTION_DOT":"-0.00000798","PERIAPSIS":"542.928","LAUNCH_DATE":"2020-10-18","APOAPSIS":"551.551","MEAN_ANOMALY":"247.5100","FILE":"3255240","TLE_LINE1":"1 46726U 20073BJ  21364.90792287 -.00000798  00000-0 -34535-4 0  9997","TIME_SYSTEM":"UTC","DECAY_DATE":null,"COUNTRY_CODE":"US","PERIOD":"95.593","CENTER_NAME":"EARTH","MEAN_MOTION":"15.06391551","ARG_OF_PERICENTER":"112.6547","MEAN_MOTION_DDOT":"0.0000000000000","GP_ID":"192794585","EPOCH":"2021-12-30T21:47:24.535968","NORAD_CAT_ID":"46726"},{"NORAD_CAT_ID":"46727","EPOCH":"2021-12-30T22:19:54.767136","GP_ID":"192793333","MEAN_MOTION_DDOT":"0.0000000000000","ARG_OF_PERICENTER":"58.2105","DECAY_DATE":null,"TLE_LINE1":"1 46727U 20073BK  21364.93049499 -.00000683  00000-0 -26982-4 0  9991","TIME_SYSTEM":"UTC","MEAN_MOTION":"15.06389387","COUNTRY_CODE":"US","CENTER_NAME":"EARTH","PERIOD":"95.593","PERIAPSIS":"545.964","MEAN_MOTION_DOT":"-0.00000683","BSTAR":"-0.00002698200000","RCS_SIZE":"LARGE","REV_AT_EPOCH":"6691","FILE":"3255240","MEAN_ANOMALY":"301.9064","APOAPSIS":"548.528","LAUNCH_DATE":"2020-10-18","CLASSIFICATION_TYPE":"U","SEMIMAJOR_AXIS":"6925.381","INCLINATION":"53.0530","EPHEMERIS_TYPE":"0","MEAN_ELEMENT_THEORY":"SGP4","ECCENTRICITY":"0.00018510","TLE_LINE2":"2 46727  53.0530 243.9641 0001851  58.2105 301.9064 15.06389387 66914","OBJECT_TYPE":"PAYLOAD","SITE":"AFETR","RA_OF_ASC_NODE":"243.9641","ELEMENT_SET_NO":"999","REF_FRAME":"TEME","OBJECT_NAME":"STARLINK-1830","OBJECT_ID":"2020-073BK"},{"MEAN_MOTION":"15.70871776","COUNTRY_CODE":"US","CENTER_NAME":"EARTH","PERIOD":"91.669","DECAY_DATE":null,"TLE_LINE1":"1 46728U 20073BL  21364.90221597  .00051406  00000-0  40632-3 0  9994","TIME_SYSTEM":"UTC","NORAD_CAT_ID":"46728","EPOCH":"2021-12-30T21:39:11.459808","GP_ID":"192794083","MEAN_MOTION_DDOT":"0.0000000000000","ARG_OF_PERICENTER":"180.8346","FILE":"3255240","MEAN_ANOMALY":"179.2666","APOAPSIS":"358.711","LAUNCH_DATE":"2020-10-18","MEAN_MOTION_DOT":"0.00051406","PERIAPSIS":"354.101","BSTAR":"0.00040632000000","RCS_SIZE":"LARGE","REV_AT_EPOCH":"6714","EPHEMERIS_TYPE":"0","MEAN_ELEMENT_THEORY":"SGP4","ECCENTRICITY":"0.00034230","CLASSIFICATION_TYPE":"U","SEMIMAJOR_AXIS":"6734.541","INCLINATION":"53.0505","OBJECT_NAME":"STARLINK-1831","OBJECT_ID":"2020-073BL","RA_OF_ASC_NODE":"226.9038","REF_FRAME":"TEME","ELEMENT_SET_NO":"999","OBJECT_TYPE":"PAYLOAD","TLE_LINE2":"2 46728  53.0505 226.9038 0003423 180.8346 179.2666 15.70871776 67143","SITE":"AFETR"},{"COUNTRY_CODE":"US","CENTER_NAME":"EARTH","PERIOD":"95.592","MEAN_MOTION":"15.06395794","TIME_SYSTEM":"UTC","TLE_LINE1":"1 46740U 20074B   21364.89085925  .00001402  00000-0  11300-3 0  9991","DECAY_DATE":null,"ARG_OF_PERICENTER":"64.6692","MEAN_MOTION_DDOT":"0.0000000000000","GP_ID":"192794835","EPOCH":"2021-12-30T21:22:50.239200","NORAD_CAT_ID":"46740","LAUNCH_DATE":"2020-10-24","APOAPSIS":"548.357","MEAN_ANOMALY":"295.4466","FILE":"3255240","REV_AT_EPOCH":"6602","RCS_SIZE":"LARGE","BSTAR":"0.00011300000000","PERIAPSIS":"546.096","MEAN_MOTION_DOT":"0.00001402","ECCENTRICITY":"0.00016320","MEAN_ELEMENT_THEORY":"SGP4","EPHEMERIS_TYPE":"0","INCLINATION":"53.0553","SEMIMAJOR_AXIS":"6925.361","CLASSIFICATION_TYPE":"U","OBJECT_ID":"2020-074B","OBJECT_NAME":"STARLINK-1848","ELEMENT_SET_NO":"999","REF_FRAME":"TEME","RA_OF_ASC_NODE":"354.1622","SITE":"AFETR","OBJECT_TYPE":"PAYLOAD","TLE_LINE2":"2 46740  53.0553 354.1622 0001632  64.6692 295.4466 15.06395794 66021"},{"MEAN_ANOMALY":"301.4315","FILE":"3255239","LAUNCH_DATE":"2020-10-24","APOAPSIS":"548.361","BSTAR":"0.00021273000000","PERIAPSIS":"546.048","MEAN_MOTION_DOT":"0.00002889","REV_AT_EPOCH":"6602","RCS_SIZE":"LARGE","EPOCH":"2021-12-30T09:03:04.164192","NORAD_CAT_ID":"46741","ARG_OF_PERICENTER":"58.6838","MEAN_MOTION_DDOT":"0.0000000000000","GP_ID":"192768634","COUNTRY_CODE":"US","PERIOD":"95.592","CENTER_NAME":"EARTH","MEAN_MOTION":"15.06402893","DECAY_DATE":null,"TIME_SYSTEM":"UTC","TLE_LINE1":"1 46741U 20074C   21364.37713153  .00002889  00000-0  21273-3 0  9996","SITE":"AFETR","TLE_LINE2":"2 46741  53.0544 351.4606 0001670  58.6838 301.4315 15.06402893 66021","OBJECT_TYPE":"PAYLOAD","OBJECT_NAME":"STARLINK-1865","OBJECT_ID":"2020-074C","RA_OF_ASC_NODE":"351.4606","ELEMENT_SET_NO":"999","REF_FRAME":"TEME","CLASSIFICATION_TYPE":"U","INCLINATION":"53.0544","SEMIMAJOR_AXIS":"6925.340","EPHEMERIS_TYPE":"0","ECCENTRICITY":"0.00016700","MEAN_ELEMENT_THEORY":"SGP4"}];
